NORAD_CAT_ID,OBJECT_NAME,OBJECT_TYPE,EPOCH,MEAN_MOTION,ECCENTRICITY,INCLINATION,RA_OF_ASC_NODE,ARG_OF_PERICENTER,MEAN_ANOMALY,BSTAR,MEAN_MOTION_DOT,MEAN_MOTION_DDOT,TLE_LINE0,TLE_LINE1,TLE_LINE2,SEMIMAJOR_AXIS,PERIOD,APOGEE,PERIGEE,DECAYED
50820.0,STARLINK-3339,PAYLOAD,2023-04-20 09:46:35,15.08827181,8.59e-05,53.2171,221.9716,91.8404,268.2686,-0.00014347,-2.569e-05,0.0,0 STARLINK-3339,1 50820U 22001T   23110.40735011 -.00002569  00000-0 -14347-3 0  9994,2 50820  53.2171 221.9716 0000859  91.8404 268.2686 15.08827181 71245,6917.92,95.438,540.379,539.19,0.0
50820.0,STARLINK-3339,PAYLOAD,2023-04-20 16:08:07,15.08841206,0.0001669,53.2177,220.7867,93.181,266.9373,8.4701e-05,1.06e-05,0.0,0 STARLINK-3339,1 50820U 22001T   23110.67230587  .00001060  00000-0  84701-4 0  9996,2 50820  53.2177 220.7867 0001669  93.1810 266.9373 15.08841206 71287,6917.877,95.437,540.896,538.587,0.0
50820.0,STARLINK-3339,PAYLOAD,2023-04-21 09:37:22,15.08835602,0.0001353,53.217,217.5154,85.5396,274.575,-3.445e-05,-8.36e-06,0.0,0 STARLINK-3339,1 50820U 22001T   23111.40094982 -.00000836  00000-0 -34450-4 0  9993,2 50820  53.2170 217.5154 0001353  85.5396 274.5750 15.08835602 72678,6917.894,95.438,540.695,538.823,0.0
50820.0,STARLINK-3339,PAYLOAD,2023-04-21 15:58:54,15.08837927,0.0001706,53.2162,216.3275,72.753,287.3648,2.6155e-05,1.28e-06,0.0,0 STARLINK-3339,1 50820U 22001T   23111.66591050  .00000128  00000-0  26155-4 0  9994,2 50820  53.2162 216.3275 0001706  72.7530 287.3648 15.08837927 71433,6917.887,95.438,540.932,538.572,0.0
50820.0,STARLINK-3339,PAYLOAD,2023-04-21 23:55:49,15.08847113,0.0001303,53.2153,214.8383,68.9349,291.1782,3.1889e-05,2.2e-06,0.0,0 STARLINK-3339,1 50820U 22001T   23111.99710448  .00000220  00000-0  31889-4 0  9997,2 50820  53.2153 214.8383 0001303  68.9349 291.1782 15.08847113 72761,6917.859,95.437,540.625,538.822,0.0
50820.0,STARLINK-3339,PAYLOAD,2023-04-22 06:17:22,15.0883645,0.0001065,53.215,213.6476,83.0025,277.1089,0.00029776,4.454e-05,0.0,0 STARLINK-3339,1 50820U 22001T   23112.26207145  .00004454  00000-0  29776-3 0  9997,2 50820  53.2150 213.6476 0001065  83.0025 277.1089 15.08836450 72803,6917.891,95.438,540.493,539.019,0.0
50820.0,STARLINK-3339,PAYLOAD,2023-04-22 15:49:41,15.08846541,0.0001461,53.2152,211.8651,59.221,300.8926,0.00020081,2.91e-05,0.0,0 STARLINK-3339,1 50820U 22001T   23112.65950665  .00002910  00000-0  20081-3 0  9997,2 50820  53.2152 211.8651 0001461  59.2210 300.8926 15.08846541 71581,6917.86,95.437,540.736,538.715,0.0
50820.0,STARLINK-3339,PAYLOAD,2023-04-23 06:08:10,15.08832653,0.0001575,53.2167,209.1893,78.6295,281.4874,-1.1126e-05,-4.65e-06,0.0,0 STARLINK-3339,1 50820U 22001T   23113.25567658 -.00000465  00000-0 -11126-4 0  9996,2 50820  53.2167 209.1893 0001575  78.6295 281.4874 15.08832653 72956,6917.903,95.438,540.857,538.678,0.0
50820.0,STARLINK-3339,PAYLOAD,2023-04-23 09:18:56,15.08830786,0.0001452,53.2158,208.5943,79.5675,280.548,-3.7241e-05,-8.8e-06,0.0,0 STARLINK-3339,1 50820U 22001T   23113.38815775 -.00000880  00000-0 -37241-4 0  9993,2 50820  53.2158 208.5943 0001452  79.5675 280.5480 15.08830786 71699,6917.909,95.438,540.778,538.769,0.0
50820.0,STARLINK-3339,PAYLOAD,2023-04-23 15:40:29,15.08832408,0.0001588,53.2164,207.406,71.722,288.3945,9.4844e-06,-1.37e-06,0.0,0 STARLINK-3339,1 50820U 22001T   23113.65311904 -.00000137  00000-0  94844-5 0  9995,2 50820  53.2164 207.4060 0001588  71.7220 288.3945 15.08832408 71734,6917.904,95.438,540.867,538.67,0.0
50820.0,STARLINK-3339,PAYLOAD,2023-04-24 05:58:56,15.08868521,0.000125,53.2158,204.7266,83.1299,276.9836,0.00047824,7.337e-05,0.0,0 STARLINK-3339,1 50820U 22001T   23114.24926120  .00007337  00000-0  47824-3 0  9995,2 50820  53.2158 204.7266 0001250  83.1299 276.9836 15.08868521 71821,6917.793,95.436,540.523,538.793,0.0
50820.0,STARLINK-3339,PAYLOAD,2023-04-24 17:06:36,15.08899311,0.0001163,53.2153,202.6439,95.3904,264.722,0.0010894,0.0001712,0.0,0 STARLINK-3339,1 50820U 22001T   23114.71292248  .00017120  00000-0  10894-2 0  9991,2 50820  53.2153 202.6439 0001163  95.3904 264.7220 15.08899311 73179,6917.699,95.434,540.369,538.76,0.0
50820.0,STARLINK-3339,PAYLOAD,2023-04-25 10:35:53,15.08821732,0.0001214,53.2154,199.3756,103.9834,256.1294,-0.00041985,-6.96e-05,0.0,0 STARLINK-3339,1 50820U 22001T   23115.44158938 -.00006960  00000-0 -41985-3 0  9997,2 50820  53.2154 199.3756 0001214 103.9834 256.1294 15.08821732 72008,6917.936,95.439,540.641,538.961,0.0
50820.0,STARLINK-3339,PAYLOAD,2023-04-26 12:02:00,15.08897383,0.00014,53.2162,194.6172,132.2561,227.855,-0.0021935,-0.00035082,0.0,0 STARLINK-3339,1 50820U 22001T   23116.50139029 -.00035082  00000-0 -21935-2 0  9994,2 50820  53.2162 194.6172 0001400 132.2561 227.8550 15.08897383 72168,6917.705,95.434,540.538,538.602,0.0
50820.0,STARLINK-3339,PAYLOAD,2023-04-26 18:23:36,15.08830654,0.000118,53.216,193.4271,116.2554,243.8559,0.00054349,8.37e-05,0.0,0 STARLINK-3339,1 50820U 22001T   23116.76639897  .00008370  00000-0  54349-3 0  9994,2 50820  53.2160 193.4271 0001180 116.2554 243.8559 15.08830654 72202,6917.909,95.438,540.59,538.958,0.0
50820.0,STARLINK-3339,PAYLOAD,2023-04-27 13:28:14,15.08854231,0.0001196,53.2159,189.86,106.6714,253.4409,0.00071411,0.000111,0.0,0 STARLINK-3339,1 50820U 22001T   23117.56127752  .00011100  00000-0  71411-3 0  9999,2 50820  53.2159 189.8600 0001196 106.6714 253.4409 15.08854231 72324,6917.837,95.437,540.529,538.875,0.0
50820.0,STARLINK-3339,PAYLOAD,2023-04-27 15:03:37,15.08859726,0.0001179,53.2155,189.562,107.9539,252.1582,0.00086279,0.00013477,0.0,0 STARLINK-3339,1 50820U 22001T   23117.62751593  .00013477  00000-0  86279-3 0  9999,2 50820  53.2155 189.5620 0001179 107.9539 252.1582 15.08859726 73614,6917.82,95.436,540.501,538.869,0.0
50820.0,STARLINK-3339,PAYLOAD,2023-04-28 11:43:37,15.08853299,0.0001132,53.2152,185.6958,107.91,252.2015,0.0001932,2.789e-05,0.0,0 STARLINK-3339,1 50820U 22001T   23118.48863026  .00002789  00000-0  19320-3 0  9996,2 50820  53.2152 185.6958 0001132 107.9100 252.2015 15.08853299 73740,6917.84,95.437,540.488,538.922,0.0
50820.0,STARLINK-3339,PAYLOAD,2023-04-28 21:15:56,15.08846432,9.2e-05,53.2146,183.9117,100.7231,259.3864,4.2418e-05,3.88e-06,0.0,0 STARLINK-3339,1 50820U 22001T   23118.88607008  .00000388  00000-0  42418-4 0  9994,2 50820  53.2146 183.9117 0000920 100.7231 259.3864 15.08846432 73809,6917.861,95.437,540.362,539.089,0.0
50820.0,STARLINK-3339,PAYLOAD,2023-04-29 11:34:24,15.08841565,0.0001138,53.2163,181.2377,101.2767,258.8353,-1.3128e-05,-4.97e-06,0.0,0 STARLINK-3339,1 50820U 22001T   23119.48223322 -.00000497  00000-0 -13128-4 0  9993,2 50820  53.2163 181.2377 0001138 101.2767 258.8353 15.08841565 72616,6917.876,95.437,540.528,538.953,0.0
50820.0,STARLINK-3339,PAYLOAD,2023-04-30 11:25:12,15.08843613,0.0001227,53.217,176.7751,94.9746,265.1386,1.419e-05,-6.2e-07,0.0,0 STARLINK-3339,1 50820U 22001T   23120.47583586 -.00000062  00000-0  14190-4 0  9992,2 50820  53.2170 176.7751 0001227  94.9746 265.1386 15.08843613 72762,6917.869,95.437,540.583,538.886,0.0
50820.0,STARLINK-3339,PAYLOAD,2023-05-01 03:19:04,15.08834276,0.0001327,53.2169,173.8018,91.093,269.0214,5.7097e-05,6.21e-06,0.0,0 STARLINK-3339,1 50820U 22001T   23121.13824237  .00000621  00000-0  57097-4 0  9990,2 50820  53.2169 173.8018 0001327  91.0930 269.0214 15.08834276 74140,6917.898,95.438,540.681,538.845,0.0
50820.0,STARLINK-3339,PAYLOAD,2023-05-01 09:40:36,15.08834003,0.000129,53.2166,172.6119,93.8071,266.3068,3.7906e-05,3.15e-06,0.0,0 STARLINK-3339,1 50820U 22001T   23121.40320388  .00000315  00000-0  37906-4 0  9995,2 50820  53.2166 172.6119 0001290  93.8071 266.3068 15.08834003 72908,6917.899,95.438,540.656,538.871,0.0
50820.0,STARLINK-3339,PAYLOAD,2023-05-02 06:20:36,15.08846005,0.0001244,53.2164,168.7456,99.9632,260.1501,0.00013269,1.825e-05,0.0,0 STARLINK-3339,1 50820U 22001T   23122.26431420  .00001825  00000-0  13269-3 0  9992,2 50820  53.2164 168.7456 0001244  99.9632 260.1501 15.08846005 74311,6917.862,95.437,540.588,538.866,0.0
50820.0,STARLINK-3339,PAYLOAD,2023-05-02 09:31:22,15.08848567,0.0001277,53.2169,168.1515,96.7302,263.3835,0.00015607,2.197e-05,0.0,0 STARLINK-3339,1 50820U 22001T   23122.39679221  .00002197  00000-0  15607-3 0  9990,2 50820  53.2169 168.1515 0001277  96.7302 263.3835 15.08848567 73051,6917.854,95.437,540.603,538.836,0.0
50820.0,STARLINK-3339,PAYLOAD,2023-05-02 14:17:31,15.08853149,0.0001222,53.2157,167.2582,96.1229,263.9902,0.00018763,2.701e-05,0.0,0 STARLINK-3339,1 50820U 22001T   23122.59550760  .00002701  00000-0  18763-3 0  9995,2 50820  53.2157 167.2582 0001222  96.1229 263.9902 15.08853149 73080,6917.84,95.437,540.551,538.86,0.0
50820.0,STARLINK-3339,PAYLOAD,2023-05-03 03:00:38,15.08834722,9.81e-05,53.2176,164.8796,105.9358,254.1743,4.1106e-05,3.66e-06,0.0,0 STARLINK-3339,1 50820U 22001T   23123.12544357  .00000366  00000-0  41106-4 0  9993,2 50820  53.2176 164.8796 0000981 105.9358 254.1743 15.08834722 74446,6917.897,95.438,540.44,539.083,0.0
50820.0,STARLINK-3339,PAYLOAD,2023-05-03 09:22:10,15.08839209,0.0001038,53.216,163.6902,93.3997,266.7113,5.651e-05,6.12e-06,0.0,0 STARLINK-3339,1 50820U 22001T   23123.39040221  .00000612  00000-0  56510-4 0  9992,2 50820  53.2160 163.6902 0001038  93.3997 266.7113 15.08839209 73206,6917.883,95.438,540.466,539.03,0.0
50820.0,STARLINK-3339,PAYLOAD,2023-05-03 14:08:20,15.08840728,0.0001074,53.216,162.7976,97.7817,262.3297,7.9786e-05,9.82e-06,0.0,0 STARLINK-3339,1 50820U 22001T   23123.58912050  .00000982  00000-0  79786-4 0  9991,2 50820  53.2160 162.7976 0001074  97.7817 262.3297 15.08840728 73232,6917.878,95.438,540.486,539.0,0.0
50820.0,STARLINK-3339,PAYLOAD,2023-05-04 04:26:48,15.08843222,0.0001119,53.2158,160.1216,87.6981,272.414,-1.4981e-05,-5.26e-06,0.0,0 STARLINK-3339,1 50820U 22001T   23124.18528153 -.00000526  00000-0 -14981-4 0  9997,2 50820  53.2158 160.1216 0001119  87.6981 272.4140 15.08843222 74601,6917.871,95.437,540.51,538.961,0.0
